STARLINK-37518          
1 69259U 26117X   26160.58337963 -.01940179  10305-2 -56788-2 0  9997
2 69259  53.1549 281.1263 0000984  58.2167 160.2884 15.92241309  2954
STARLINK-37478          
1 69260U 26117Y   26160.58337963 -.01998917  10893-2 -58580-2 0  9996
2 69260  53.1551 281.1340 0001073  62.6590 152.1772 15.92224887  2952
STARLINK-37506          
1 69261U 26117Z   26160.58337963 -.02012215  11051-2 -58360-2 0  9999
2 69261  53.1547 281.1234 0001053  64.1626 155.6337 15.92426252  2950
STARLINK-37503          
1 69262U 26117AA  26160.58337963 -.02066623  11614-2 -60027-2 0  9990
2 69262  53.1549 281.1170 0001051  61.8472 160.7231 15.92404516  2952
STARLINK-37502          
1 69263U 26117AB  26160.58337963 -.01986122  10759-2 -58317-2 0  9993
2 69263  53.1548 281.1108 0001015  61.8138 163.5305 15.92186499  2952
STARLINK-37486          
1 69264U 26117AC  26160.58337963 -.01970201  10572-2 -58578-2 0  9997
2 69264  53.1546 281.0996 0001022  63.3930 167.5052 15.91943361  2951
STARLINK-37435          
1 69265U 26117AD  26160.58337963 -.01938378  10140-2 -61161-2 0  9990
2 69265  53.1546 281.0846 0000948  63.7230 173.8778 15.90784654  2951
STARLINK-37464          
1 69266U 26117AE  26160.58337963 -.01926183  00000+0 -71835-2 0  9992
2 69266  53.1547 281.0620 0000965  61.5123 186.9256 15.90456343  2956
KUIPER-00282            
1 69267U 26118A   26160.53780460 -.00059002  00000+0 -17197-2 0  9990
2 69267  51.8591  90.4130 0011961 153.7476 206.4118 15.34810550  2803
KUIPER-00383            
1 69268U 26118B   26160.40484201 -.00042204  00000+0 -12173-2 0  9996
2 69268  51.8589  91.0221 0010537 153.8434 206.3086 15.35005790  2785
KUIPER-00527            
1 69269U 26118C   26160.53250658  .00020103  00000+0  58112-3 0  9994
2 69269  51.8620  90.3789 0009905 149.3334 210.8233 15.35577867  2805
KUIPER-00562            
1 69270U 26118D   26160.51657061  .00021625  00000+0  56940-3 0  9990
2 69270  51.8719  90.2672 0001939  97.4743 262.6464 15.38474023  2806
KUIPER-00570            
1 69271U 26118E   26160.58337963  .00024831  00000+0  72048-3 0  9993
2 69271  51.8576  90.1586 0011839 157.1140 111.3742 15.35306481  2365
KUIPER-00572            
1 69272U 26118F   26160.52773627  .00021108  00000+0  58599-3 0  9998
2 69272  51.8674  90.3491 0007358 143.3286 216.8205 15.36830594  2803
KUIPER-00581            
1 69273U 26118G   26160.52992490  .00021741  00000+0  60918-3 0  9991
2 69273  51.8656  90.3638 0008865 148.1610 211.9914 15.36511426  2897
KUIPER-00584            
1 69274U 26118H   26160.53665417  .00021879  00000+0  63634-3 0  9999
2 69274  51.8605  90.4054 0011148 160.7618 199.3791 15.35316536  2808
KUIPER-00587            
1 69275U 26118J   26160.52939897  .00021304  00000+0  59769-3 0  9992
2 69275  51.8630  90.3598 0008370 149.7196 210.4275 15.36488066  2801
KUIPER-00590            
1 69276U 26118K   26160.52168867  .00020241  00000+0  54687-3 0  9997
2 69276  51.8687  90.3093 0004370 131.2884 228.8480 15.37716562  2807
KUIPER-00592            
1 69277U 26118L   26160.52025260  .00021609  00000+0  57884-3 0  9998
2 69277  51.8707  90.2979 0003763 109.2125 250.9269 15.37941272  2800
KUIPER-00593            
1 69278U 26118M   26160.52054501  .00020388  00000+0  54856-3 0  9998
2 69278  51.8711  90.2983 0004016 126.4888 233.6469 15.37840571  2866
KUIPER-00594            
1 69279U 26118N   26160.51548225  .00019193  00000+0  50715-3 0  9991
2 69279  51.8714  90.2637 0001139  65.6718 294.4388 15.38446228  2806
KUIPER-00595            
1 69280U 26118P   26160.51715387  .00021540  00000+0  56975-3 0  9991
2 69280  51.8710  90.2770 0001985 107.5447 252.5758 15.38336132  2837
KUIPER-00596            
1 69281U 26118Q   26160.34031542  .00012641  00000+0  36952-3 0  9992
2 69281  51.8551  91.3379 0011998 156.6518 203.5015 15.35586240  2776
KUIPER-00597            
1 69282U 26118R   26160.52623593  .00022784  00000+0  63013-3 0  9993
2 69282  51.8651  90.3399 0007176 142.1327 218.0165 15.36899624  2805
KUIPER-00599            
1 69283U 26118S   26160.52503160  .00022121  00000+0  60632-3 0  9990
2 69283  51.8691  90.3311 0006271 136.1058 224.0427 15.37204164  2801
KUIPER-00600            
1 69284U 26118T   26160.52894620  .00020940  00000+0  58541-3 0  9998
2 69284  51.8641  90.3572 0008990 144.3147 215.8442 15.36605012  2807
KUIPER-00601            
1 69285U 26118U   26160.52300080  .00022492  00000+0  60997-3 0  9993
2 69285  51.8702  90.3164 0004877 128.7893 231.3530 15.37530172  2803
KUIPER-00602            
1 69286U 26118V   26160.38967589  .00020389  00000+0  54632-3 0  9993
2 69286  51.8699  90.9242 0003166 117.7162 242.4146 15.37970950  2784
KUIPER-00603            
1 69287U 26118W   26160.52379000  .00025642  00000+0  69680-3 0  9991
2 69287  51.8667  90.3245 0005614 132.0095 228.1370 15.37385870  2806
KUIPER-00605            
1 69288U 26118X   26160.52707588  .00024052  00000+0  66377-3 0  9992
2 69288  51.8662  90.3448 0007688 137.9957 222.1620 15.36930821  2804
