OBJECT_NAME,OBJECT_ID,EPOCH,MEAN_MOTION,ECCENTRICITY,INCLINATION,RA_OF_ASC_NODE,ARG_OF_PERICENTER,MEAN_ANOMALY,EPHEMERIS_TYPE,CLASSIFICATION_TYPE,NORAD_CAT_ID,ELEMENT_SET_NO,REV_AT_EPOCH,BSTAR,MEAN_MOTION_DOT,MEAN_MOTION_DDOT
STARLINK-37518,2026-117X,2026-06-09T14:00:04.000032,15.92241309,.00009843,53.1549,281.1263,58.2167,160.2884,0,U,69259,999,295,-.56788067E-2,-.1940179E-1,.10305062E-2
STARLINK-37478,2026-117Y,2026-06-09T14:00:04.000032,15.92224887,.00010734,53.1551,281.1340,62.6590,152.1772,0,U,69260,999,295,-.58580035E-2,-.1998917E-1,.10892542E-2
STARLINK-37506,2026-117Z,2026-06-09T14:00:04.000032,15.92426252,.00010538,53.1547,281.1234,64.1626,155.6337,0,U,69261,999,295,-.58359968E-2,-.2012215E-1,.11050847E-2
STARLINK-37503,2026-117AA,2026-06-09T14:00:04.000032,15.92404516,.00010519,53.1549,281.1170,61.8472,160.7231,0,U,69262,999,295,-.60026825E-2,-.2066623E-1,.11614402E-2
STARLINK-37502,2026-117AB,2026-06-09T14:00:04.000032,15.92186499,.00010159,53.1548,281.1108,61.8138,163.5305,0,U,69263,999,295,-.58316688E-2,-.1986122E-1,.10758577E-2
STARLINK-37486,2026-117AC,2026-06-09T14:00:04.000032,15.91943361,.00010222,53.1546,281.0996,63.3930,167.5052,0,U,69264,999,295,-.58577544E-2,-.1970201E-1,.10572412E-2
STARLINK-37435,2026-117AD,2026-06-09T14:00:04.000032,15.90784654,.00009481,53.1546,281.0846,63.7230,173.8778,0,U,69265,999,295,-.61161291E-2,-.1938378E-1,.10139522E-2
STARLINK-37464,2026-117AE,2026-06-09T14:00:04.000032,15.90456343,.00009656,53.1547,281.0620,61.5123,186.9256,0,U,69266,999,295,-.71835351E-2,-.1926183E-1,0
KUIPER-00282,2026-118A,2026-06-09T12:54:26.317440,15.34810550,.00119617,51.8591,90.4130,153.7476,206.4118,0,U,69267,999,280,-.17197453E-2,-.59002E-3,0
KUIPER-00383,2026-118B,2026-06-09T09:42:58.349664,15.35005790,.00105372,51.8589,91.0221,153.8434,206.3086,0,U,69268,999,278,-.12173017E-2,-.42204E-3,0
KUIPER-00527,2026-118C,2026-06-09T12:46:48.568512,15.35577867,.00099052,51.8620,90.3789,149.3334,210.8233,0,U,69269,999,280,.58112456E-3,.20103E-3,0
KUIPER-00562,2026-118D,2026-06-09T12:23:51.700704,15.38474023,.00019398,51.8719,90.2672,97.4743,262.6464,0,U,69270,999,280,.56940306E-3,.21625E-3,0
KUIPER-00570,2026-118E,2026-06-09T14:00:04.000032,15.35306481,.00118393,51.8576,90.1586,157.1140,111.3742,0,U,69271,999,236,.72048136E-3,.24831E-3,0
KUIPER-00572,2026-118F,2026-06-09T12:39:56.413728,15.36830594,.00073583,51.8674,90.3491,143.3286,216.8205,0,U,69272,999,280,.58599409E-3,.21108E-3,0
KUIPER-00581,2026-118G,2026-06-09T12:43:05.511360,15.36511426,.00088659,51.8656,90.3638,148.1610,211.9914,0,U,69273,999,289,.60918279E-3,.21741E-3,0
KUIPER-00584,2026-118H,2026-06-09T12:52:46.920288,15.35316536,.0011148,51.8605,90.4054,160.7618,199.3791,0,U,69274,999,280,.63634465E-3,.21879E-3,0
KUIPER-00587,2026-118J,2026-06-09T12:42:20.071008,15.36488066,.00083704,51.8630,90.3598,149.7196,210.4275,0,U,69275,999,280,.59769461E-3,.21304E-3,0
KUIPER-00590,2026-118K,2026-06-09T12:31:13.901088,15.37716562,.00043704,51.8687,90.3093,131.2884,228.8480,0,U,69276,999,280,.54686702E-3,.20241E-3,0
KUIPER-00592,2026-118L,2026-06-09T12:29:09.824640,15.37941272,.00037637,51.8707,90.2979,109.2125,250.9269,0,U,69277,999,280,.57883629E-3,.21609E-3,0
KUIPER-00593,2026-118M,2026-06-09T12:29:35.088864,15.37840571,.00040164,51.8711,90.2983,126.4888,233.6469,0,U,69278,999,286,.5485644E-3,.20388E-3,0
KUIPER-00594,2026-118N,2026-06-09T12:22:17.666400,15.38446228,.00011393,51.8714,90.2637,65.6718,294.4388,0,U,69279,999,280,.50714839E-3,.19193E-3,0
KUIPER-00595,2026-118P,2026-06-09T12:24:42.094368,15.38336132,.00019853,51.8710,90.2770,107.5447,252.5758,0,U,69280,999,283,.5697507E-3,.2154E-3,0
KUIPER-00596,2026-118Q,2026-06-09T08:10:03.252288,15.35586240,.00119988,51.8551,91.3379,156.6518,203.5015,0,U,69281,999,277,.36952322E-3,.12641E-3,0
KUIPER-00597,2026-118R,2026-06-09T12:37:46.784352,15.36899624,.00071763,51.8651,90.3399,142.1327,218.0165,0,U,69282,999,280,.6301313E-3,.22784E-3,0
KUIPER-00599,2026-118S,2026-06-09T12:36:02.730240,15.37204164,.00062712,51.8691,90.3311,136.1058,224.0427,0,U,69283,999,280,.60632397E-3,.22121E-3,0
KUIPER-00600,2026-118T,2026-06-09T12:41:40.951680,15.36605012,.00089908,51.8641,90.3572,144.3147,215.8442,0,U,69284,999,280,.58541246E-3,.2094E-3,0
KUIPER-00601,2026-118U,2026-06-09T12:33:07.269120,15.37530172,.00048776,51.8702,90.3164,128.7893,231.3530,0,U,69285,999,280,.60996582E-3,.22492E-3,0
KUIPER-00602,2026-118V,2026-06-09T09:21:07.996896,15.37970950,.00031661,51.8699,90.9242,117.7162,242.4146,0,U,69286,999,278,.54632146E-3,.20389E-3,0
KUIPER-00603,2026-118W,2026-06-09T12:34:15.456000,15.37385870,.00056148,51.8667,90.3245,132.0095,228.1370,0,U,69287,999,280,.69680081E-3,.25642E-3,0
KUIPER-00605,2026-118X,2026-06-09T12:38:59.356032,15.36930821,.00076881,51.8662,90.3448,137.9957,222.1620,0,U,69288,999,280,.66376793E-3,.24052E-3,0
